#cP2024  2 25  0  0  0.00000000     577 d+D   IGS20 EXT AIUB
## 2303      0.00000000   300.00000000 60365 0.0000000000000
+   78   G01G02G03G04G05G06G07G08G09G10G11G12G13G14G15G16G17
+        G18G19G20G21G22G23G24G25G26G27G28G29G30G31G32R01R02
+        R03R04R05R07R08R09R11R12R13R14R15R16R17R18R19R20R21
+        R22R24E02E03E04E05E07E08E09E10E11E12E13E14E15E18E19
+        E21E24E25E26E27E30E31E33E34E36  0  0  0  0  0  0  0
++         6  8  6  6  7  7  7  7  6  6  7  7  7  5  7  7  7
++         7  7  7  8  7  6  6  5  7  6  6  7  6  7  6  8  7
++         7  8  7  8  8  7  6  6  7  6  6  8  8  6  8  9  7
++         7  7  6  7  7  6  7  7  7  7  6  6  7  7  6  7  7
++         6  6  6  7  6  6  6  6  6  6  0  0  0  0  0  0  0
%c M  cc GPS ccc cccc cccc cccc cccc ccccc ccccc ccccc ccccc
%c cc cc ccc ccc cccc cccc cccc cccc ccccc ccccc ccccc ccccc
%f  1.2500000  1.025000000  0.00000000000  0.000000000000000
%f  0.0000000  0.000000000  0.00000000000  0.000000000000000
%i    0    0    0    0      0      0      0      0         0
%i    0    0    0    0      0      0      0      0         0
/* Center for Orbit Determination in Europe (CODE)          
/* Ultra-rapid GRE orbits starting year-day 24056 00 hour   
/* Observed/predicted: 24/24 hours (data used up to 056X)   
/* PCV:IGS20      OL/AL:FES2014b NONE     YN ORB:CoN CLK:BRD
*  2024  2 25  0 40  0.00000000
PG01  22983.121109  12560.218644  -5738.800561    170.975826
PG02  18493.062763  13865.463379 -12819.862606   -480.186634
PG03  11883.849869  20608.235744  11795.361454    214.305742
PG04  11260.909809  10300.815311  21760.178116    299.953412
PG05  -6168.678056 -25780.414161     52.996971   -163.067147
PG06  15265.747524  -8503.575031  20104.381675    393.698876
PG07  25727.548288   5251.066820  -4927.444067    -69.899812
PG08   3838.583158  16304.955383 -20612.151276      7.760467
PG09  20303.620007  -2350.512684  16911.691585    103.464914
PG10 -11737.724994  11586.171623 -20533.198298      1.173194
PG11   2918.449940 -15013.687401  21742.636806   -586.975304
PG12 -10340.257601 -21727.349933  11031.254575   -481.256167
PG13   6851.608575 -18728.776784 -17631.731858    628.598110
PG14  14210.332814  -7454.783101 -21115.317923    334.536180
PG15  -5920.356746 -16357.805307 -20512.246406    131.192854
PG16   -829.780507  25772.009276   4926.959928   -355.223685
PG17  22759.845639 -12409.352517  -5716.845220    715.889022
PG18 -25370.013085  -4352.042257  -6912.728820   -562.821795
PG19  20379.167202 -16456.976237   2783.065706    445.351721
PG20    950.274110 -23317.131274  12894.886494    386.242275
PG21  14341.912723  15333.327183 -16354.187960    133.705311
PG22  10952.177438 -15992.431517 -17860.797941     25.773588
PG23 -15366.716963  -2172.774661 -21557.062035    163.412082
PG24 -16305.806034 -15383.454024 -14965.523468   -437.087598
PG25 -15422.339072 -12127.735606  17684.256279    489.584105
PG26  -6181.574124  20542.132893  15273.066082    186.590161
PG27  -8487.848824  20644.354630 -14333.195064     -6.899427
PG28 -17595.264319   7859.801832  18254.694925   -142.511431
PG29 -19520.230365   -818.546568  17988.276411   -606.267666
PG30  22024.995504  -3570.986194 -14477.056986   -428.148182
PG31  -8723.531194  12883.715537  21350.649813   -227.869761
PG32 -21124.730750  15522.801306  -3301.047539   -613.308628
PR01   4961.088814 -22483.215749 -10960.810498     78.039950
PR02  -5661.472194 -11376.644098 -22079.287060    -22.531953
PR03 -13909.613378   6105.931869 -20421.408977     95.169060
PR04 -14304.106911  19666.638631  -7642.677265    224.891727
PR05  -7105.636048  22669.615123   9273.291335    127.435645
PR07  14194.500397  -6998.692925  20067.534591     76.559326
PR08  14191.421524 -19856.169039   7539.913357    -74.526253
PR09  16039.469581  19416.647243  -4295.264016    171.864574
PR11   7661.349342  -8143.006675 -22920.630834     33.245438
PR12  -6277.955135 -20997.165899 -13049.262496     37.109367
PR13 -14938.709784 -20590.893634   1896.571913    -44.686151
PR14 -15713.656191  -7103.245248  18793.409922     26.095659
PR15  -6820.412417   9518.559412  22673.514322     81.905823
PR16   6255.976616  20832.897694  13353.170221     23.532757
PR17 -25490.735982    573.850404   1212.582230     63.964262
PR18 -19598.969877   7222.952913 -14583.552572    129.076709
PR19  -5841.601708  10115.327930 -22673.980023   -267.083782
PR20  16486.833374   7906.517486 -17799.677012   -108.771999
PR21  25475.223772   -483.849281   -967.185998    -79.635234
PR22  19042.205828  -7339.180425  15342.970181    109.741680
PR24 -17249.580394  -7409.065733  17291.270608    -45.285547
PE02 -16904.115305    510.524162  24282.159511    106.158434
PE03 -24963.728083   8709.573886 -13319.613142    -96.067951
PE04  19909.688786 -21289.492196  -5142.438672   -335.162202
PE05 -15366.252667  -8768.157447 -23724.790188   4723.237400
PE07  -3677.121305  21392.116262  20137.297344   -105.551622
PE08 -20344.546111  21034.260749   4493.834203   -229.166478
PE09   3853.622984 -21331.134580 -20146.886271   -348.188987
PE10   4004.644390 -15534.524441  24874.195752   -604.535622
PE11  -7863.595460 -18091.539910  22056.270836   3224.746134
PE12  14076.896755 -11045.993421  23586.342835   -920.865108
PE13   7202.619322  17959.383482 -22397.387778    -20.296168
PE14    687.414670  22739.083629 -21805.479094 999999.999999
PE15 -14546.849780  10683.863459 -23447.995357    -87.703324
PE18 -12920.946932 -10721.070973  19289.926543 999999.999999
PE19  24546.737859  -6751.698568  15113.954791   -550.420360
PE21  14819.869675  19687.623436 -16403.580416   -580.746314
PE24  -3590.946602 -29341.437698  -1808.244937   -616.883413
PE25 -14667.941215 -20047.929923  16099.962767      1.331805
PE26  24709.347482  14398.679237  -7642.609663    378.549405
PE27   3966.149901  29292.057776   1405.959586   -283.165467
PE30  -9322.536763  21313.642033  18275.219176    -31.589302
PE31   9096.793165 -21522.996273 -18176.983935    -16.781198
PE33  27593.970921   3133.487835  10254.555354      8.103817
PE34 -27449.937037  -2692.864319 -10742.999062    -96.513445
PE36 -24352.614373 -14625.161910   8297.475745   -190.623752
EOF
